YAOGAN-43 01G           
1 60464U 24148G   26068.44348481  .00010133  00000+0  35873-3 0  9993
2 60464  35.0006  62.0013 0007382 306.3543  53.6492 15.28332833 87004
STARLINK-34592          
1 64746U 25144Y   26068.52569976  .00024323  00000+0  83034-3 0  9998
2 64746  53.1605 169.2442 0001438 152.0048 208.1030 15.30213038 39869
